CCSDS_OMM_VERS = 2.0
CREATION_DATE  = 
ORIGINATOR     = 

OBJECT_NAME    = SL-3 R/B
OBJECT_ID      = 1982-079B
CENTER_NAME    = EARTH
REF_FRAME      = TEME
TIME_SYSTEM    = UTC
MEAN_ELEMENT_THEORY = SGP/SGP4

EPOCH          = 2026-02-25T11:02:33.543744
MEAN_MOTION    = 15.24586577
ECCENTRICITY   = .0024576
INCLINATION    = 81.1460
RA_OF_ASC_NODE = 207.5141
ARG_OF_PERICENTER = 206.1846
MEAN_ANOMALY   = 153.8146

EPHEMERIS_TYPE = 0
CLASSIFICATION_TYPE = U
NORAD_CAT_ID   = 13403
ELEMENT_SET_NO = 999
REV_AT_EPOCH   = 37583
BSTAR          = .25285E-3
MEAN_MOTION_DOT = .631E-4
MEAN_MOTION_DDOT = 0

CCSDS_OMM_VERS = 2.0
CREATION_DATE  = 
ORIGINATOR     = 

OBJECT_NAME    = SL-14 R/B
OBJECT_ID      = 1982-092B
CENTER_NAME    = EARTH
REF_FRAME      = TEME
TIME_SYSTEM    = UTC
MEAN_ELEMENT_THEORY = SGP/SGP4

EPOCH          = 2026-02-25T07:49:19.329024
MEAN_MOTION    = 14.86651763
ECCENTRICITY   = .001988
INCLINATION    = 82.5712
RA_OF_ASC_NODE = 152.9612
ARG_OF_PERICENTER = 346.5705
MEAN_ANOMALY   = 71.8802

EPHEMERIS_TYPE = 0
CLASSIFICATION_TYPE = U
NORAD_CAT_ID   = 13553
ELEMENT_SET_NO = 999
REV_AT_EPOCH   = 32709
BSTAR          = .50187E-4
MEAN_MOTION_DOT = .471E-5
MEAN_MOTION_DDOT = 0

CCSDS_OMM_VERS = 2.0
CREATION_DATE  = 
ORIGINATOR     = 

OBJECT_NAME    = SL-3 R/B
OBJECT_ID      = 1983-010B
CENTER_NAME    = EARTH
REF_FRAME      = TEME
TIME_SYSTEM    = UTC
MEAN_ELEMENT_THEORY = SGP/SGP4

EPOCH          = 2026-02-25T08:02:07.883808
MEAN_MOTION    = 15.45850605
ECCENTRICITY   = .0018663
INCLINATION    = 81.1045
RA_OF_ASC_NODE = 17.3873
ARG_OF_PERICENTER = 89.8740
MEAN_ANOMALY   = 270.4643

EPHEMERIS_TYPE = 0
CLASSIFICATION_TYPE = U
NORAD_CAT_ID   = 13819
ELEMENT_SET_NO = 999
REV_AT_EPOCH   = 35603
BSTAR          = .32665E-3
MEAN_MOTION_DOT = .15998E-3
MEAN_MOTION_DDOT = 0

CCSDS_OMM_VERS = 2.0
CREATION_DATE  = 
ORIGINATOR     = 

OBJECT_NAME    = SL-3 R/B
OBJECT_ID      = 1983-075B
CENTER_NAME    = EARTH
REF_FRAME      = TEME
TIME_SYSTEM    = UTC
MEAN_ELEMENT_THEORY = SGP/SGP4

EPOCH          = 2026-02-25T10:58:43.373280
MEAN_MOTION    = 15.38075869
ECCENTRICITY   = .0019642
INCLINATION    = 97.6142
RA_OF_ASC_NODE = 60.5758
ARG_OF_PERICENTER = 274.1233
MEAN_ANOMALY   = 85.7766

EPHEMERIS_TYPE = 0
CLASSIFICATION_TYPE = U
NORAD_CAT_ID   = 14208
ELEMENT_SET_NO = 999
REV_AT_EPOCH   = 32827
BSTAR          = .29519E-3
MEAN_MOTION_DOT = .11048E-3
MEAN_MOTION_DDOT = 0

CCSDS_OMM_VERS = 2.0
CREATION_DATE  = 
ORIGINATOR     = 

OBJECT_NAME    = COSMOS 1536
OBJECT_ID      = 1984-013A
CENTER_NAME    = EARTH
REF_FRAME      = TEME
TIME_SYSTEM    = UTC
MEAN_ELEMENT_THEORY = SGP/SGP4

EPOCH          = 2026-02-25T10:32:58.492896
MEAN_MOTION    = 15.23643132
ECCENTRICITY   = .0013264
INCLINATION    = 82.5453
RA_OF_ASC_NODE = 120.0262
ARG_OF_PERICENTER = 330.7976
MEAN_ANOMALY   = 29.2517

EPHEMERIS_TYPE = 0
CLASSIFICATION_TYPE = U
NORAD_CAT_ID   = 14699
ELEMENT_SET_NO = 999
REV_AT_EPOCH   = 27075
BSTAR          = .26359E-3
MEAN_MOTION_DOT = .6362E-4
MEAN_MOTION_DDOT = 0

CCSDS_OMM_VERS = 2.0
CREATION_DATE  = 
ORIGINATOR     = 

OBJECT_NAME    = SL-14 R/B
OBJECT_ID      = 1984-027B
CENTER_NAME    = EARTH
REF_FRAME      = TEME
TIME_SYSTEM    = UTC
MEAN_ELEMENT_THEORY = SGP/SGP4

EPOCH          = 2026-02-25T12:07:13.944000
MEAN_MOTION    = 14.85961891
ECCENTRICITY   = .0018416
INCLINATION    = 82.5381
RA_OF_ASC_NODE = 256.4439
ARG_OF_PERICENTER = 18.6401
MEAN_ANOMALY   = 341.5486

EPHEMERIS_TYPE = 0
CLASSIFICATION_TYPE = U
NORAD_CAT_ID   = 14820
ELEMENT_SET_NO = 999
REV_AT_EPOCH   = 24582
BSTAR          = .46359E-4
MEAN_MOTION_DOT = .43E-5
MEAN_MOTION_DDOT = 0

CCSDS_OMM_VERS = 2.0
CREATION_DATE  = 
ORIGINATOR     = 

OBJECT_NAME    = SL-8 R/B
OBJECT_ID      = 1985-006B
CENTER_NAME    = EARTH
REF_FRAME      = TEME
TIME_SYSTEM    = UTC
MEAN_ELEMENT_THEORY = SGP/SGP4

EPOCH          = 2026-02-25T01:45:24.010848
MEAN_MOTION    = 14.37775455
ECCENTRICITY   = .00189622
INCLINATION    = 74.0443
RA_OF_ASC_NODE = 284.3657
ARG_OF_PERICENTER = 204.7787
MEAN_ANOMALY   = 263.7728

EPHEMERIS_TYPE = 0
CLASSIFICATION_TYPE = U
NORAD_CAT_ID   = 15483
ELEMENT_SET_NO = 999
REV_AT_EPOCH   = 15221
BSTAR          = .50064367E-4
MEAN_MOTION_DOT = .125E-5
MEAN_MOTION_DDOT = 0

CCSDS_OMM_VERS = 2.0
CREATION_DATE  = 
ORIGINATOR     = 

OBJECT_NAME    = SL-12 R/B(2)
OBJECT_ID      = 1985-042D
CENTER_NAME    = EARTH
REF_FRAME      = TEME
TIME_SYSTEM    = UTC
MEAN_ELEMENT_THEORY = SGP/SGP4

EPOCH          = 2026-02-25T12:46:50.145312
MEAN_MOTION    = 14.21978774
ECCENTRICITY   = .0033879
INCLINATION    = 71.1072
RA_OF_ASC_NODE = 113.4151
ARG_OF_PERICENTER = 147.9624
MEAN_ANOMALY   = 315.0081

EPHEMERIS_TYPE = 0
CLASSIFICATION_TYPE = U
NORAD_CAT_ID   = 15772
ELEMENT_SET_NO = 999
REV_AT_EPOCH   = 11266
BSTAR          = .1804E-4
MEAN_MOTION_DOT = -.7E-7
MEAN_MOTION_DDOT = 0

CCSDS_OMM_VERS = 2.0
CREATION_DATE  = 
ORIGINATOR     = 

OBJECT_NAME    = SL-14 R/B
OBJECT_ID      = 1985-069B
CENTER_NAME    = EARTH
REF_FRAME      = TEME
TIME_SYSTEM    = UTC
MEAN_ELEMENT_THEORY = SGP/SGP4

EPOCH          = 2026-02-25T10:13:41.361888
MEAN_MOTION    = 14.86416437
ECCENTRICITY   = .001749
INCLINATION    = 82.5259
RA_OF_ASC_NODE = 36.4648
ARG_OF_PERICENTER = 230.0256
MEAN_ANOMALY   = 129.9425

EPHEMERIS_TYPE = 0
CLASSIFICATION_TYPE = U
NORAD_CAT_ID   = 15945
ELEMENT_SET_NO = 999
REV_AT_EPOCH   = 17101
BSTAR          = .59001E-4
MEAN_MOTION_DOT = .546E-5
MEAN_MOTION_DDOT = 0

CCSDS_OMM_VERS = 2.0
CREATION_DATE  = 
ORIGINATOR     = 

OBJECT_NAME    = SL-16 R/B
OBJECT_ID      = 1985-097B
CENTER_NAME    = EARTH
REF_FRAME      = TEME
TIME_SYSTEM    = UTC
MEAN_ELEMENT_THEORY = SGP/SGP4

EPOCH          = 2026-02-25T11:49:15.619296
MEAN_MOTION    = 14.16597364
ECCENTRICITY   = .0009774
INCLINATION    = 71.0037
RA_OF_ASC_NODE = 166.2305
ARG_OF_PERICENTER = 273.6508
MEAN_ANOMALY   = 169.8036

EPHEMERIS_TYPE = 0
CLASSIFICATION_TYPE = U
NORAD_CAT_ID   = 16182
ELEMENT_SET_NO = 999
REV_AT_EPOCH   = 8550
BSTAR          = .15425E-3
MEAN_MOTION_DOT = .26E-5
MEAN_MOTION_DDOT = 0

CCSDS_OMM_VERS = 2.0
CREATION_DATE  = 
ORIGINATOR     = 

OBJECT_NAME    = SL-14 R/B
OBJECT_ID      = 1986-006B
CENTER_NAME    = EARTH
REF_FRAME      = TEME
TIME_SYSTEM    = UTC
MEAN_ELEMENT_THEORY = SGP/SGP4

EPOCH          = 2026-02-25T01:40:43.014720
MEAN_MOTION    = 14.86796005
ECCENTRICITY   = .00755102
INCLINATION    = 82.5239
RA_OF_ASC_NODE = 271.6173
ARG_OF_PERICENTER = 315.4113
MEAN_ANOMALY   = 44.1044

EPHEMERIS_TYPE = 0
CLASSIFICATION_TYPE = U
NORAD_CAT_ID   = 16496
ELEMENT_SET_NO = 999
REV_AT_EPOCH   = 14733
BSTAR          = .52639845E-4
MEAN_MOTION_DOT = .519E-5
MEAN_MOTION_DDOT = 0

CCSDS_OMM_VERS = 2.0
CREATION_DATE  = 
ORIGINATOR     = 

OBJECT_NAME    = COSMOS 1743
OBJECT_ID      = 1986-034A
CENTER_NAME    = EARTH
REF_FRAME      = TEME
TIME_SYSTEM    = UTC
MEAN_ELEMENT_THEORY = SGP/SGP4

EPOCH          = 2026-02-25T12:05:07.748160
MEAN_MOTION    = 15.57584778
ECCENTRICITY   = .000314
INCLINATION    = 82.5312
RA_OF_ASC_NODE = 86.6124
ARG_OF_PERICENTER = 0.7941
MEAN_ANOMALY   = 359.3319

EPHEMERIS_TYPE = 0
CLASSIFICATION_TYPE = U
NORAD_CAT_ID   = 16719
ELEMENT_SET_NO = 999
REV_AT_EPOCH   = 17835
BSTAR          = .47556E-3
MEAN_MOTION_DOT = .35197E-3
MEAN_MOTION_DDOT = 0

