SL-3 R/B                
1 13403U 82079B   26056.46011046  .00006310  00000+0  25285-3 0  9992
2 13403  81.1460 207.5141 0024576 206.1846 153.8146 15.24586577375838
SL-14 R/B               
1 13553U 82092B   26056.32591816  .00000471  00000+0  50187-4 0  9998
2 13553  82.5712 152.9612 0019880 346.5705  71.8802 14.86651763327090
SL-3 R/B                
1 13819U 83010B   26056.33481347  .00015998  00000+0  32665-3 0  9992
2 13819  81.1045  17.3873 0018663  89.8740 270.4643 15.45850605356034
SL-3 R/B                
1 14208U 83075B   26056.45744645  .00011048  00000+0  29519-3 0  9998
2 14208  97.6142  60.5758 0019642 274.1233  85.7766 15.38075869328274
COSMOS 1536             
1 14699U 84013A   26056.43956589  .00006362  00000+0  26359-3 0  9997
2 14699  82.5453 120.0262 0013264 330.7976  29.2517 15.23643132270759
SL-14 R/B               
1 14820U 84027B   26056.50502250  .00000430  00000+0  46359-4 0  9991
2 14820  82.5381 256.4439 0018416  18.6401 341.5486 14.85961891245821
SL-8 R/B                
1 15483U 85006B   26056.07319457  .00000125  00000+0  50064-4 0  9991
2 15483  74.0443 284.3657 0018962 204.7787 263.7728 14.37775455152215
SL-12 R/B(2)            
1 15772U 85042D   26056.53252483 -.00000007  00000+0  18040-4 0  9996
2 15772  71.1072 113.4151 0033879 147.9624 315.0081 14.21978774112665
SL-14 R/B               
1 15945U 85069B   26056.42617317  .00000546  00000+0  59001-4 0  9995
2 15945  82.5259  36.4648 0017490 230.0256 129.9425 14.86416437171013
SL-16 R/B               
1 16182U 85097B   26056.49254189  .00000260  00000+0  15425-3 0  9995
2 16182  71.0037 166.2305 0009774 273.6508 169.8036 14.16597364 85506
SL-14 R/B               
1 16496U 86006B   26056.06994230  .00000519  00000+0  52640-4 0  9993
2 16496  82.5239 271.6173 0075510 315.4113  44.1044 14.86796005147331
COSMOS 1743             
1 16719U 86034A   26056.50356190  .00035197  00000+0  47556-3 0  9997
2 16719  82.5312  86.6124 0003140   0.7941 359.3319 15.57584778178357
